{"type": "FeatureCollection", "features": [ {"type": "Feature", "properties": {"norad_id": 32150, "name": "FENGYUN 1C DEB", "group": "fengyun-1c-debris", "lat": 5.105144490115099, "lon": -178.27970407849034, "alt_km": 677.4085553477344, "timestamp": "2025-12-04T21:36:16.158446+00:00", "meta": {"OBJECT_NAME": "FENGYUN 1C DEB", "OBJECT_ID": "1999-025CSU", "EPOCH": "2025-11-29T19:09:50.026752", "MEAN_MOTION": 14.60634219, "ECCENTRICITY": 0.01723606, "INCLINATION": 99.1937, "RA_OF_ASC_NODE": 355.2308, "ARG_OF_PERICENTER": 106.7202, "MEAN_ANOMALY": 255.299, "EPHEMERIS_TYPE": 0, "CLASSIFICATION_TYPE": "U", "NORAD_CAT_ID": 32150, "ELEMENT_SET_NO": 999, "REV_AT_EPOCH": 97517, "BSTAR": 0.00012171499, "MEAN_MOTION_DOT": 6.63e-06, "MEAN_MOTION_DDOT": 0}, "tle": {"line1": "1 32150U 99025CSU 25333.79849568  .00000663  00000+0  12171-3 0  9997", "line2": "2 32150  99.1937 355.2308 0172360 106.7202 255.2990 14.60634219975171"}}, "geometry": {"type": "Point", "coordinates": [-178.27970407849034, 5.105144490115099]}}, {"type": "Feature", "properties": {"norad_id": 32152, "name": "FENGYUN 1C DEB", "group": "fengyun-1c-debris", "lat": 62.776487147527014, "lon": -22.915904992707066, "alt_km": 711.1439001734661, "timestamp": "2025-12-04T21:36:16.158457+00:00", "meta": {"OBJECT_NAME": "FENGYUN 1C DEB", "OBJECT_ID": "1999-025CSW", "EPOCH": "2025-12-04T06:13:51.350304", "MEAN_MOTION": 14.56482445, "ECCENTRICITY": 0.00553238, "INCLINATION": 98.7599, "RA_OF_ASC_NODE": 138.9704, "ARG_OF_PERICENTER": 227.1779, "MEAN_ANOMALY": 132.4761, "EPHEMERIS_TYPE": 0, "CLASSIFICATION_TYPE": "U", "NORAD_CAT_ID": 32152, "ELEMENT_SET_NO": 999, "REV_AT_EPOCH": 62489, "BSTAR": 0.0046274454, "MEAN_MOTION_DOT": 0.00021013, "MEAN_MOTION_DDOT": 0}, "tle": {"line1": "1 32152U 99025CSW 25338.25962211  .00021013  00000+0  46274-2 0  9998", "line2": "2 32152  98.7599 138.9704 0055323 227.1779 132.4761 14.56482445624893"}}, "geometry": {"type": "Point", "coordinates": [-22.915904992707066, 62.776487147527014]}}, {"type": "Feature", "properties": {"norad_id": 32153, "name": "FENGYUN 1C DEB", "group": "fengyun-1c-debris", "lat": -47.80523113884274, "lon": -168.67576792613787, "alt_km": 675.4403430416141, "timestamp": "2025-12-04T21:36:16.158467+00:00", "meta": {"OBJECT_NAME": "FENGYUN 1C DEB", "OBJECT_ID": "1999-025CSX", "EPOCH": "2025-12-01T12:36:09.592128", "MEAN_MOTION": 14.48662778, "ECCENTRICITY": 0.02070632, "INCLINATION": 98.7701, "RA_OF_ASC_NODE": 178.0134, "ARG_OF_PERICENTER": 255.2407, "MEAN_ANOMALY": 102.576, "EPHEMERIS_TYPE": 0, "CLASSIFICATION_TYPE": "U", "NORAD_CAT_ID": 32153, "ELEMENT_SET_NO": 999, "REV_AT_EPOCH": 97061, "BSTAR": 0.00036967855, "MEAN_MOTION_DOT": 1.766e-05, "MEAN_MOTION_DDOT": 0}, "tle": {"line1": "1 32153U 99025CSX 25335.52511102  .00001766  00000+0  36968-3 0  9998", "line2": "2 32153  98.7701 178.0134 0207063 255.2407 102.5760 14.48662778970612"}}, "geometry": {"type": "Point", "coordinates": [-168.67576792613787, -47.80523113884274]}}, {"type": "Feature", "properties": {"norad_id": 32155, "name": "FENGYUN 1C DEB", "group": "fengyun-1c-debris", "lat": 15.314891152049332, "lon": -94.21811542825301, "alt_km": 801.3395044776498, "timestamp": "2025-12-04T21:36:16.158477+00:00", "meta": {"OBJECT_NAME": "FENGYUN 1C DEB", "OBJECT_ID": "1999-025CSZ", "EPOCH": "2025-12-04T13:09:10.028736", "MEAN_MOTION": 14.32912866, "ECCENTRICITY": 0.00692864, "INCLINATION": 98.9526, "RA_OF_ASC_NODE": 267.8923, "ARG_OF_PERICENTER": 264.2615, "MEAN_ANOMALY": 95.0665, "EPHEMERIS_TYPE": 0, "CLASSIFICATION_TYPE": "U", "NORAD_CAT_ID": 32155, "ELEMENT_SET_NO": 999, "REV_AT_EPOCH": 70105, "BSTAR": 0.0011610286, "MEAN_MOTION_DOT": 3.211e-05, "MEAN_MOTION_DDOT": 0}, "tle": {"line1": "1 32155U 99025CSZ 25338.54803274  .00003211  00000+0  11610-2 0  9992", "line2": "2 32155  98.9526 267.8923 0069286 264.2615  95.0665 14.32912866701057"}}, "geometry": {"type": "Point", "coordinates": [-94.21811542825301, 15.314891152049332]}}, {"type": "Feature", "properties": {"norad_id": 32156, "name": "FENGYUN 1C DEB", "group": "fengyun-1c-debris", "lat": 48.67913042183638, "lon": 137.0539375343609, "alt_km": 729.6171718733658, "timestamp": "2025-12-04T21:36:16.158487+00:00", "meta": {"OBJECT_NAME": "FENGYUN 1C DEB", "OBJECT_ID": "1999-025CTA", "EPOCH": "2025-11-28T04:22:59.204352", "MEAN_MOTION": 14.31912456, "ECCENTRICITY": 0.00824268, "INCLINATION": 99.3546, "RA_OF_ASC_NODE": 140.6244, "ARG_OF_PERICENTER": 99.0063, "MEAN_ANOMALY": 262.0458, "EPHEMERIS_TYPE": 0, "CLASSIFICATION_TYPE": "U", "NORAD_CAT_ID": 32156, "ELEMENT_SET_NO": 999, "REV_AT_EPOCH": 64612, "BSTAR": 0.00036827986, "MEAN_MOTION_DOT": 9.74e-06, "MEAN_MOTION_DDOT": 0}, "tle": {"line1": "1 32156U 99025CTA 25332.18262968  .00000974  00000+0  36828-3 0  9998", "line2": "2 32156  99.3546 140.6244 0082426  99.0063 262.0458 14.31912456646127"}}, "geometry": {"type": "Point", "coordinates": [137.0539375343609, 48.67913042183638]}}, {"type": "Feature", "properties": {"norad_id": 32160, "name": "FENGYUN 1C DEB", "group": "fengyun-1c-debris", "lat": 57.837447600423175, "lon": 121.41140811113019, "alt_km": 713.8246556068298, "timestamp": "2025-12-04T21:36:16.158497+00:00", "meta": {"OBJECT_NAME": "FENGYUN 1C DEB", "OBJECT_ID": "1999-025CTE", "EPOCH": "2025-12-04T06:18:04.587840", "MEAN_MOTION": 14.37533289, "ECCENTRICITY": 0.00824136, "INCLINATION": 98.8812, "RA_OF_ASC_NODE": 135.1511, "ARG_OF_PERICENTER": 23.9168, "MEAN_ANOMALY": 336.5813, "EPHEMERIS_TYPE": 0, "CLASSIFICATION_TYPE": "U", "NORAD_CAT_ID": 32160, "ELEMENT_SET_NO": 999, "REV_AT_EPOCH": 95765, "BSTAR": 0.00077758338, "MEAN_MOTION_DOT": 2.375e-05, "MEAN_MOTION_DDOT": 0}, "tle": {"line1": "1 32160U 99025CTE 25338.26255310  .00002375  00000+0  77758-3 0  9995", "line2": "2 32160  98.8812 135.1511 0082413  23.9168 336.5813 14.37533289957650"}}, "geometry": {"type": "Point", "coordinates": [121.41140811113019, 57.837447600423175]}}, {"type": "Feature", "properties": {"norad_id": 32161, "name": "FENGYUN 1C DEB", "group": "fengyun-1c-debris", "lat": 36.97516573467346, "lon": -89.50203457350426, "alt_km": 976.7476016852152, "timestamp": "2025-12-04T21:36:16.158507+00:00", "meta": {"OBJECT_NAME": "FENGYUN 1C DEB", "OBJECT_ID": "1999-025CTF", "EPOCH": "2025-12-03T02:05:41.290080", "MEAN_MOTION": 14.01850718, "ECCENTRICITY": 0.01352524, "INCLINATION": 98.8291, "RA_OF_ASC_NODE": 82.0226, "ARG_OF_PERICENTER": 307.2576, "MEAN_ANOMALY": 51.6317, "EPHEMERIS_TYPE": 0, "CLASSIFICATION_TYPE": "U", "NORAD_CAT_ID": 32161, "ELEMENT_SET_NO": 999, "REV_AT_EPOCH": 63294, "BSTAR": 0.00046609948, "MEAN_MOTION_DOT": 7.24e-06, "MEAN_MOTION_DDOT": 0}, "tle": {"line1": "1 32161U 99025CTF 25337.08728345  .00000724  00000+0  46610-3 0  9997", "line2": "2 32161  98.8291  82.0226 0135252 307.2576  51.6317 14.01850718632942"}}, "geometry": {"type": "Point", "coordinates": [-89.50203457350426, 36.97516573467346]}}, {"type": "Feature", "properties": {"norad_id": 32162, "name": "FENGYUN 1C DEB", "group": "fengyun-1c-debris", "lat": -79.92912354709428, "lon": 132.97737443984508, "alt_km": 684.1581156393195, "timestamp": "2025-12-04T21:36:16.158517+00:00", "meta": {"OBJECT_NAME": "FENGYUN 1C DEB", "OBJECT_ID": "1999-025CTG", "EPOCH": "2025-12-03T01:40:46.349760", "MEAN_MOTION": 14.61809926, "ECCENTRICITY": 0.00478765, "INCLINATION": 99.4653, "RA_OF_ASC_NODE": 20.8265, "ARG_OF_PERICENTER": 199.6333, "MEAN_ANOMALY": 160.3022, "EPHEMERIS_TYPE": 0, "CLASSIFICATION_TYPE": "U", "NORAD_CAT_ID": 32162, "ELEMENT_SET_NO": 999, "REV_AT_EPOCH": 94777, "BSTAR": 0.001930688, "MEAN_MOTION_DOT": 9.749e-05, "MEAN_MOTION_DDOT": 0}, "tle": {"line1": "1 32162U 99025CTG 25337.06998090  .00009749  00000+0  19307-2 0  9990", "line2": "2 32162  99.4653  20.8265 0047876 199.6333 160.3022 14.61809926947775"}}, "geometry": {"type": "Point", "coordinates": [132.97737443984508, -79.92912354709428]}}, {"type": "Feature", "properties": {"norad_id": 32167, "name": "FENGYUN 1C DEB", "group": "fengyun-1c-debris", "lat": -74.07194342629575, "lon": 5.115001072564784, "alt_km": 904.1104671669409, "timestamp": "2025-12-04T21:36:16.158527+00:00", "meta": {"OBJECT_NAME": "FENGYUN 1C DEB", "OBJECT_ID": "1999-025CTM", "EPOCH": "2025-12-02T04:31:04.305792", "MEAN_MOTION": 14.30943689, "ECCENTRICITY": 0.01648923, "INCLINATION": 98.4751, "RA_OF_ASC_NODE": 330.9721, "ARG_OF_PERICENTER": 88.2816, "MEAN_ANOMALY": 273.7246, "EPHEMERIS_TYPE": 0, "CLASSIFICATION_TYPE": "U", "NORAD_CAT_ID": 32167, "ELEMENT_SET_NO": 999, "REV_AT_EPOCH": 62524, "BSTAR": 0.00035916746, "MEAN_MOTION_DOT": 1.051e-05, "MEAN_MOTION_DDOT": 0}, "tle": {"line1": "1 32167U 99025CTM 25336.18824428  .00001051  00000+0  35917-3 0  9994", "line2": "2 32167  98.4751 330.9721 0164892  88.2816 273.7246 14.30943689625240"}}, "geometry": {"type": "Point", "coordinates": [5.115001072564784, -74.07194342629575]}}, {"type": "Feature", "properties": {"norad_id": 32168, "name": "FENGYUN 1C DEB", "group": "fengyun-1c-debris", "lat": 1.5156557129646095, "lon": 45.738952626127876, "alt_km": 985.9988759315602, "timestamp": "2025-12-04T21:36:16.158537+00:00", "meta": {"OBJECT_NAME": "FENGYUN 1C DEB", "OBJECT_ID": "1999-025CTN", "EPOCH": "2025-12-03T10:56:49.879968", "MEAN_MOTION": 13.85965652, "ECCENTRICITY": 0.02426884, "INCLINATION": 101.6572, "RA_OF_ASC_NODE": 44.2578, "ARG_OF_PERICENTER": 260.6008, "MEAN_ANOMALY": 96.7629, "EPHEMERIS_TYPE": 0, "CLASSIFICATION_TYPE": "U", "NORAD_CAT_ID": 32168, "ELEMENT_SET_NO": 999, "REV_AT_EPOCH": 63351, "BSTAR": 0.005492601, "MEAN_MOTION_DOT": 7.899e-05, "MEAN_MOTION_DDOT": 0}, "tle": {"line1": "1 32168U 99025CTN 25337.45613287  .00007899  00000+0  54926-2 0  9991", "line2": "2 32168 101.6572  44.2578 0242688 260.6008  96.7629 13.85965652633513"}}, "geometry": {"type": "Point", "coordinates": [45.738952626127876, 1.5156557129646095]}}]}